*******************************************************************************
Ephemeris / WWW_USER Mon Mar 24 08:32:06 2025 Pasadena, USA      / Horizons    
*******************************************************************************
Target body name: (2018 WV1)                      {source: JPL#17}
Center body name: Earth (399)                     {source: DE441}
Center-site name: Mauna Kea
*******************************************************************************
Start time      : A.D. 2018-Sep-25 04:25:00.0000 UT      
Stop  time      : A.D. 2018-Sep-25 16:02:00.0000 UT      
Step-size       : 1 minutes
*******************************************************************************
Target pole/equ : undefined
Target radii    : undefined                                                    
Center geodetic : 204.5278, 19.8260847, 4.21024   {E-lon(deg),Lat(deg),Alt(km)}
Center cylindric: 204.5278, 6006.35451, 2151.0229 {E-lon(deg),Dxy(km),Dz(km)}
Center pole/equ : ITRF93                          {East-longitude positive}
Center radii    : 6378.137, 6378.137, 6356.752 km {Equator_a, b, pole_c}       
Target primary  : Sun
Vis. interferer : MOON (R_eq= 1737.400) km        {source: DE441}
Rel. light bend : Sun                             {source: DE441}
Rel. lght bnd GM: 1.3271E+11 km^3/s^2                                          
Small-body perts: Yes                             {source: SB441-N16}
Atmos refraction: NO (AIRLESS)
RA format       : HMS
Time format     : CAL 
Calendar mode   : Mixed Julian/Gregorian
RTS-only print  : NO       
EOP file        : eop.250321.p250617                                           
EOP coverage    : DATA-BASED 1962-JAN-20 TO 2025-MAR-21. PREDICTS-> 2025-JUN-16
Units conversion: 1 au= 149597870.700 km, c= 299792.458 km/s, 1 day= 86400.0 s 
Table cut-offs 1: Elevation (-90.0deg=NO ),Airmass (>38.000=NO), Daylight (YES)
Table cut-offs 2: Solar elongation (  0.0,180.0=NO ),Local Hour Angle( 0.0=NO )
Table cut-offs 3: RA/DEC angular rate (     0.0=NO )                           
*******************************************************************************
Initial IAU76/J2000 heliocentric ecliptic osculating elements (au, days, deg.):
  EPOCH=  2458458.5 ! 2018-Dec-06.00 (TDB)         Residual RMS= .12928        
   EC= .06869100257422787  QR= .9715505345748198   TP= 2458416.866413563       
   OM= 248.5061090469913   W=  141.3742304527303   IN= 1.905403987972275       
  Equivalent ICRF heliocentric cartesian coordinates (au, au/d):
   X= 2.787163119783287E-01  Y= 8.719775267121872E-01  Z= 3.748421051204766E-01
  VX=-1.676682657337402E-02 VY= 5.516972965834891E-03 VZ= 1.749720915605096E-03
Asteroid physical parameters (km, seconds, rotational period in hours):        
   GM= n.a.                RAD= n.a.               ROTPER= n.a.                
   H= 30.3                 G= .150                 B-V= n.a.                   
                           ALBEDO= n.a.            STYP= n.a.                  
*******************************************************************************
 Date__(UT)__HR:MN     R.A._________(ICRF)_________DEC
******************************************************
$$SOE
 2018-Sep-25 06:28  m  01 51 07.203148 +17 53 04.97411
 2018-Sep-25 06:29  m  01 51 07.226395 +17 53 05.49779
 2018-Sep-25 06:30  m  01 51 07.249526 +17 53 06.02140
 2018-Sep-25 06:31  m  01 51 07.272543 +17 53 06.54494
 2018-Sep-25 06:32  m  01 51 07.295444 +17 53 07.06841
 2018-Sep-25 06:33  m  01 51 07.318230 +17 53 07.59181
 2018-Sep-25 06:34  m  01 51 07.340902 +17 53 08.11513
 2018-Sep-25 06:35  m  01 51 07.363459 +17 53 08.63837
 2018-Sep-25 06:36  m  01 51 07.385900 +17 53 09.16153
 2018-Sep-25 06:37  m  01 51 07.408228 +17 53 09.68460
 2018-Sep-25 06:38  m  01 51 07.430440 +17 53 10.20759
 2018-Sep-25 06:39  m  01 51 07.452538 +17 53 10.73049
 2018-Sep-25 06:40  m  01 51 07.474522 +17 53 11.25330
 2018-Sep-25 06:41  m  01 51 07.496391 +17 53 11.77602
 2018-Sep-25 06:42  m  01 51 07.518147 +17 53 12.29865
 2018-Sep-25 06:43  m  01 51 07.539787 +17 53 12.82117
 2018-Sep-25 06:44  m  01 51 07.561314 +17 53 13.34360
 2018-Sep-25 06:45  m  01 51 07.582727 +17 53 13.86593
 2018-Sep-25 06:46  m  01 51 07.604026 +17 53 14.38816
 2018-Sep-25 06:47  m  01 51 07.625211 +17 53 14.91028
 2018-Sep-25 06:48  m  01 51 07.646282 +17 53 15.43229
 2018-Sep-25 06:49  m  01 51 07.667240 +17 53 15.95419
 2018-Sep-25 06:50  m  01 51 07.688085 +17 53 16.47598
 2018-Sep-25 06:51  m  01 51 07.708815 +17 53 16.99766
 2018-Sep-25 06:52  m  01 51 07.729433 +17 53 17.51922
 2018-Sep-25 06:53  m  01 51 07.749938 +17 53 18.04066
 2018-Sep-25 06:54  m  01 51 07.770329 +17 53 18.56198
 2018-Sep-25 06:55  m  01 51 07.790607 +17 53 19.08318
 2018-Sep-25 06:56  m  01 51 07.810773 +17 53 19.60426
 2018-Sep-25 06:57  m  01 51 07.830826 +17 53 20.12520
 2018-Sep-25 06:58  m  01 51 07.850766 +17 53 20.64602
 2018-Sep-25 06:59  m  01 51 07.870594 +17 53 21.16671
 2018-Sep-25 07:00  m  01 51 07.890310 +17 53 21.68726
 2018-Sep-25 07:01  m  01 51 07.909913 +17 53 22.20768
 2018-Sep-25 07:02  m  01 51 07.929405 +17 53 22.72796
 2018-Sep-25 07:03  m  01 51 07.948784 +17 53 23.24810
 2018-Sep-25 07:04  m  01 51 07.968051 +17 53 23.76809
 2018-Sep-25 07:05  m  01 51 07.987207 +17 53 24.28795
 2018-Sep-25 07:06  m  01 51 08.006252 +17 53 24.80766
 2018-Sep-25 07:07  m  01 51 08.025184 +17 53 25.32721
 2018-Sep-25 07:08  m  01 51 08.044006 +17 53 25.84662
 2018-Sep-25 07:09  m  01 51 08.062717 +17 53 26.36588
 2018-Sep-25 07:10  m  01 51 08.081316 +17 53 26.88498
 2018-Sep-25 07:11  m  01 51 08.099805 +17 53 27.40392
 2018-Sep-25 07:12  m  01 51 08.118183 +17 53 27.92271
 2018-Sep-25 07:13  m  01 51 08.136451 +17 53 28.44133
 2018-Sep-25 07:14  m  01 51 08.154608 +17 53 28.95979
 2018-Sep-25 07:15  m  01 51 08.172655 +17 53 29.47809
 2018-Sep-25 07:16  m  01 51 08.190592 +17 53 29.99621
 2018-Sep-25 07:17  m  01 51 08.208419 +17 53 30.51417
 2018-Sep-25 07:18  m  01 51 08.226137 +17 53 31.03196
 2018-Sep-25 07:19  m  01 51 08.243745 +17 53 31.54957
 2018-Sep-25 07:20  m  01 51 08.261243 +17 53 32.06701
 2018-Sep-25 07:21  m  01 51 08.278632 +17 53 32.58427
 2018-Sep-25 07:22  m  01 51 08.295913 +17 53 33.10134
 2018-Sep-25 07:23  m  01 51 08.313084 +17 53 33.61824
 2018-Sep-25 07:24  m  01 51 08.330147 +17 53 34.13495
 2018-Sep-25 07:25  m  01 51 08.347101 +17 53 34.65148
 2018-Sep-25 07:26  m  01 51 08.363947 +17 53 35.16781
 2018-Sep-25 07:27  m  01 51 08.380685 +17 53 35.68396
 2018-Sep-25 07:28  m  01 51 08.397314 +17 53 36.19992
 2018-Sep-25 07:29  m  01 51 08.413836 +17 53 36.71567
 2018-Sep-25 07:30  m  01 51 08.430251 +17 53 37.23124
 2018-Sep-25 07:31  m  01 51 08.446558 +17 53 37.74660
 2018-Sep-25 07:32  m  01 51 08.462758 +17 53 38.26176
 2018-Sep-25 07:33  m  01 51 08.478850 +17 53 38.77673
 2018-Sep-25 07:34  m  01 51 08.494836 +17 53 39.29148
 2018-Sep-25 07:35  m  01 51 08.510716 +17 53 39.80603
 2018-Sep-25 07:36  m  01 51 08.526489 +17 53 40.32037
 2018-Sep-25 07:37  m  01 51 08.542155 +17 53 40.83450
 2018-Sep-25 07:38  m  01 51 08.557716 +17 53 41.34841
 2018-Sep-25 07:39  m  01 51 08.573171 +17 53 41.86211
 2018-Sep-25 07:40  m  01 51 08.588521 +17 53 42.37560
 2018-Sep-25 07:41  m  01 51 08.603765 +17 53 42.88886
 2018-Sep-25 07:42  m  01 51 08.618903 +17 53 43.40190
 2018-Sep-25 07:43  m  01 51 08.633937 +17 53 43.91472
 2018-Sep-25 07:44  m  01 51 08.648866 +17 53 44.42732
 2018-Sep-25 07:45  m  01 51 08.663691 +17 53 44.93969
 2018-Sep-25 07:46  m  01 51 08.678411 +17 53 45.45183
 2018-Sep-25 07:47  m  01 51 08.693028 +17 53 45.96373
 2018-Sep-25 07:48  m  01 51 08.707540 +17 53 46.47541
 2018-Sep-25 07:49  m  01 51 08.721949 +17 53 46.98685
 2018-Sep-25 07:50  m  01 51 08.736254 +17 53 47.49805
 2018-Sep-25 07:51  m  01 51 08.750456 +17 53 48.00901
 2018-Sep-25 07:52  m  01 51 08.764556 +17 53 48.51973
 2018-Sep-25 07:53  m  01 51 08.778552 +17 53 49.03021
 2018-Sep-25 07:54  m  01 51 08.792446 +17 53 49.54045
 2018-Sep-25 07:55  m  01 51 08.806238 +17 53 50.05043
 2018-Sep-25 07:56  m  01 51 08.819928 +17 53 50.56017
 2018-Sep-25 07:57  m  01 51 08.833516 +17 53 51.06966
 2018-Sep-25 07:58  m  01 51 08.847003 +17 53 51.57889
 2018-Sep-25 07:59  m  01 51 08.860389 +17 53 52.08787
 2018-Sep-25 08:00  m  01 51 08.873673 +17 53 52.59660
 2018-Sep-25 08:01  m  01 51 08.886857 +17 53 53.10506
 2018-Sep-25 08:02  m  01 51 08.899940 +17 53 53.61326
 2018-Sep-25 08:03  m  01 51 08.912923 +17 53 54.12121
 2018-Sep-25 08:04  m  01 51 08.925806 +17 53 54.62888
 2018-Sep-25 08:05  m  01 51 08.938589 +17 53 55.13629
 2018-Sep-25 08:06  m  01 51 08.951273 +17 53 55.64343
 2018-Sep-25 08:07  m  01 51 08.963858 +17 53 56.15031
 2018-Sep-25 08:08  m  01 51 08.976343 +17 53 56.65691
 2018-Sep-25 08:09  m  01 51 08.988730 +17 53 57.16323
 2018-Sep-25 08:10  m  01 51 09.001019 +17 53 57.66928
 2018-Sep-25 08:11  m  01 51 09.013209 +17 53 58.17506
 2018-Sep-25 08:12  m  01 51 09.025302 +17 53 58.68055
 2018-Sep-25 08:13  m  01 51 09.037297 +17 53 59.18576
 2018-Sep-25 08:14  m  01 51 09.049195 +17 53 59.69069
 2018-Sep-25 08:15  m  01 51 09.060995 +17 54 00.19533
 2018-Sep-25 08:16  m  01 51 09.072699 +17 54 00.69969
 2018-Sep-25 08:17  m  01 51 09.084306 +17 54 01.20376
 2018-Sep-25 08:18  m  01 51 09.095818 +17 54 01.70754
 2018-Sep-25 08:19  m  01 51 09.107233 +17 54 02.21102
 2018-Sep-25 08:20  m  01 51 09.118552 +17 54 02.71421
 2018-Sep-25 08:21  m  01 51 09.129777 +17 54 03.21710
 2018-Sep-25 08:22  m  01 51 09.140906 +17 54 03.71970
 2018-Sep-25 08:23  m  01 51 09.151940 +17 54 04.22199
 2018-Sep-25 08:24  m  01 51 09.162880 +17 54 04.72399
 2018-Sep-25 08:25  m  01 51 09.173726 +17 54 05.22568
 2018-Sep-25 08:26  m  01 51 09.184478 +17 54 05.72706
 2018-Sep-25 08:27  m  01 51 09.195136 +17 54 06.22814
 2018-Sep-25 08:28  m  01 51 09.205701 +17 54 06.72891
 2018-Sep-25 08:29  m  01 51 09.216173 +17 54 07.22937
 2018-Sep-25 08:30  m  01 51 09.226552 +17 54 07.72952
